[{"OBJECT_NAME":"YAOGAN-36 04C","OBJECT_ID":"2022-171E","EPOCH":"2026-03-09T18:55:44.889600","MEAN_MOTION":15.29852307,"ECCENTRICITY":0.00066848,"INCLINATION":34.9797,"RA_OF_ASC_NODE":96.6578,"ARG_OF_PERICENTER":275.3761,"MEAN_ANOMALY":84.6192,"EPHEMERIS_TYPE":0,"CLASSIFICATION_TYPE":"U","NORAD_CAT_ID":54750,"ELEMENT_SET_NO":999,"REV_AT_EPOCH":18024,"BSTAR":0.00054591902,"MEAN_MOTION_DOT":0.00016196,"MEAN_MOTION_DDOT":0},{"OBJECT_NAME":"STARLINK-32953","OBJECT_ID":"2025-075P","EPOCH":"2026-03-09T22:33:33.185088","MEAN_MOTION":15.27599288,"ECCENTRICITY":0.00010292,"INCLINATION":43.0028,"RA_OF_ASC_NODE":269.3945,"ARG_OF_PERICENTER":259.1113,"MEAN_ANOMALY":100.9623,"EPHEMERIS_TYPE":0,"CLASSIFICATION_TYPE":"U","NORAD_CAT_ID":63561,"ELEMENT_SET_NO":999,"REV_AT_EPOCH":5196,"BSTAR":0.00099784921,"MEAN_MOTION_DOT":0.00027314,"MEAN_MOTION_DDOT":0}]
